FENGYUN 1C DEB          
1 31296U 99025BPE 17345.25448385  .00001199  00000-0  56489-3 0  9990
2 31296  99.0683  84.8243 0039573  59.2837 328.9630 14.21464068555224
